<?xml version="1.0" encoding="UTF-8"?>
<ndm xmlns:xsi="http://www.w3.org/2001/XMLSchema-instance" xsi:noNamespaceSchemaLocation="https://sanaregistry.org/r/ndmxml_unqualified/ndmxml-2.0.0-master-2.0.xsd">
<omm id="CCSDS_OMM_VERS" version="2.0">
<header><CREATION_DATE/><ORIGINATOR/></header><body><segment><metadata><OBJECT_NAME>ONEWEB-0136</OBJECT_NAME><OBJECT_ID>2020-100AA</OBJECT_ID><CENTER_NAME>EARTH</CENTER_NAME><REF_FRAME>TEME</REF_FRAME><TIME_SYSTEM>UTC</TIME_SYSTEM><MEAN_ELEMENT_THEORY>SGP4</MEAN_ELEMENT_THEORY></metadata><data><meanElements><EPOCH>2024-05-18T13:34:44.462496</EPOCH><MEAN_MOTION>13.12444021</MEAN_MOTION><ECCENTRICITY>.0002388</ECCENTRICITY><INCLINATION>87.8938</INCLINATION><RA_OF_ASC_NODE>141.8746</RA_OF_ASC_NODE><ARG_OF_PERICENTER>94.7983</ARG_OF_PERICENTER><MEAN_ANOMALY>265.3419</MEAN_ANOMALY></meanElements><tleParameters><EPHEMERIS_TYPE>0</EPHEMERIS_TYPE><CLASSIFICATION_TYPE>U</CLASSIFICATION_TYPE><NORAD_CAT_ID>47282</NORAD_CAT_ID><ELEMENT_SET_NO>999</ELEMENT_SET_NO><REV_AT_EPOCH>16502</REV_AT_EPOCH><BSTAR>-.29357E-2</BSTAR><MEAN_MOTION_DOT>-.1043E-4</MEAN_MOTION_DOT><MEAN_MOTION_DDOT>0</MEAN_MOTION_DDOT></tleParameters></data></segment></body></omm>
<omm id="CCSDS_OMM_VERS" version="2.0">
<header><CREATION_DATE/><ORIGINATOR/></header><body><segment><metadata><OBJECT_NAME>ONEWEB-0137</OBJECT_NAME><OBJECT_ID>2020-100AB</OBJECT_ID><CENTER_NAME>EARTH</CENTER_NAME><REF_FRAME>TEME</REF_FRAME><TIME_SYSTEM>UTC</TIME_SYSTEM><MEAN_ELEMENT_THEORY>SGP4</MEAN_ELEMENT_THEORY></metadata><data><meanElements><EPOCH>2024-05-18T12:32:59.319456</EPOCH><MEAN_MOTION>13.12442729</MEAN_MOTION><ECCENTRICITY>.0002095</ECCENTRICITY><INCLINATION>87.8924</INCLINATION><RA_OF_ASC_NODE>141.9099</RA_OF_ASC_NODE><ARG_OF_PERICENTER>85.8692</ARG_OF_PERICENTER><MEAN_ANOMALY>274.2676</MEAN_ANOMALY></meanElements><tleParameters><EPHEMERIS_TYPE>0</EPHEMERIS_TYPE><CLASSIFICATION_TYPE>U</CLASSIFICATION_TYPE><NORAD_CAT_ID>47283</NORAD_CAT_ID><ELEMENT_SET_NO>999</ELEMENT_SET_NO><REV_AT_EPOCH>16492</REV_AT_EPOCH><BSTAR>.92301E-3</BSTAR><MEAN_MOTION_DOT>.345E-5</MEAN_MOTION_DOT><MEAN_MOTION_DDOT>0</MEAN_MOTION_DDOT></tleParameters></data></segment></body></omm>
<omm id="CCSDS_OMM_VERS" version="2.0">
<header><CREATION_DATE/><ORIGINATOR/></header><body><segment><metadata><OBJECT_NAME>ONEWEB-0138</OBJECT_NAME><OBJECT_ID>2020-100AC</OBJECT_ID><CENTER_NAME>EARTH</CENTER_NAME><REF_FRAME>TEME</REF_FRAME><TIME_SYSTEM>UTC</TIME_SYSTEM><MEAN_ELEMENT_THEORY>SGP4</MEAN_ELEMENT_THEORY></metadata><data><meanElements><EPOCH>2024-05-18T12:03:15.108480</EPOCH><MEAN_MOTION>13.12442546</MEAN_MOTION><ECCENTRICITY>.0002164</ECCENTRICITY><INCLINATION>87.8922</INCLINATION><RA_OF_ASC_NODE>141.9263</RA_OF_ASC_NODE><ARG_OF_PERICENTER>88.5252</ARG_OF_PERICENTER><MEAN_ANOMALY>271.6124</MEAN_ANOMALY></meanElements><tleParameters><EPHEMERIS_TYPE>0</EPHEMERIS_TYPE><CLASSIFICATION_TYPE>U</CLASSIFICATION_TYPE><NORAD_CAT_ID>47284</NORAD_CAT_ID><ELEMENT_SET_NO>999</ELEMENT_SET_NO><REV_AT_EPOCH>16500</REV_AT_EPOCH><BSTAR>-.79068E-3</BSTAR><MEAN_MOTION_DOT>-.272E-5</MEAN_MOTION_DOT><MEAN_MOTION_DDOT>0</MEAN_MOTION_DDOT></tleParameters></data></segment></body></omm>
<omm id="CCSDS_OMM_VERS" version="2.0">
<header><CREATION_DATE/><ORIGINATOR/></header><body><segment><metadata><OBJECT_NAME>ONEWEB-0139</OBJECT_NAME><OBJECT_ID>2020-100AD</OBJECT_ID><CENTER_NAME>EARTH</CENTER_NAME><REF_FRAME>TEME</REF_FRAME><TIME_SYSTEM>UTC</TIME_SYSTEM><MEAN_ELEMENT_THEORY>SGP4</MEAN_ELEMENT_THEORY></metadata><data><meanElements><EPOCH>2024-05-18T11:22:05.088000</EPOCH><MEAN_MOTION>13.12444402</MEAN_MOTION><ECCENTRICITY>.0002111</ECCENTRICITY><INCLINATION>87.8929</INCLINATION><RA_OF_ASC_NODE>141.9038</RA_OF_ASC_NODE><ARG_OF_PERICENTER>90.5402</ARG_OF_PERICENTER><MEAN_ANOMALY>269.5968</MEAN_ANOMALY></meanElements><tleParameters><EPHEMERIS_TYPE>0</EPHEMERIS_TYPE><CLASSIFICATION_TYPE>U</CLASSIFICATION_TYPE><NORAD_CAT_ID>47285</NORAD_CAT_ID><ELEMENT_SET_NO>999</ELEMENT_SET_NO><REV_AT_EPOCH>16507</REV_AT_EPOCH><BSTAR>.53569E-3</BSTAR><MEAN_MOTION_DOT>.205E-5</MEAN_MOTION_DOT><MEAN_MOTION_DDOT>0</MEAN_MOTION_DDOT></tleParameters></data></segment></body></omm>
<omm id="CCSDS_OMM_VERS" version="2.0">
<header><CREATION_DATE/><ORIGINATOR/></header><body><segment><metadata><OBJECT_NAME>ONEWEB-0140</OBJECT_NAME><OBJECT_ID>2020-100AE</OBJECT_ID><CENTER_NAME>EARTH</CENTER_NAME><REF_FRAME>TEME</REF_FRAME><TIME_SYSTEM>UTC</TIME_SYSTEM><MEAN_ELEMENT_THEORY>SGP4</MEAN_ELEMENT_THEORY></metadata><data><meanElements><EPOCH>2024-05-18T13:43:52.749984</EPOCH><MEAN_MOTION>13.12445068</MEAN_MOTION><ECCENTRICITY>.0002227</ECCENTRICITY><INCLINATION>87.8923</INCLINATION><RA_OF_ASC_NODE>141.8877</RA_OF_ASC_NODE><ARG_OF_PERICENTER>89.7100</ARG_OF_PERICENTER><MEAN_ANOMALY>270.4283</MEAN_ANOMALY></meanElements><tleParameters><EPHEMERIS_TYPE>0</EPHEMERIS_TYPE><CLASSIFICATION_TYPE>U</CLASSIFICATION_TYPE><NORAD_CAT_ID>47286</NORAD_CAT_ID><ELEMENT_SET_NO>999</ELEMENT_SET_NO><REV_AT_EPOCH>16505</REV_AT_EPOCH><BSTAR>-.10764E-2</BSTAR><MEAN_MOTION_DOT>-.375E-5</MEAN_MOTION_DOT><MEAN_MOTION_DDOT>0</MEAN_MOTION_DDOT></tleParameters></data></segment></body></omm>
<omm id="CCSDS_OMM_VERS" version="2.0">
<header><CREATION_DATE/><ORIGINATOR/></header><body><segment><metadata><OBJECT_NAME>ONEWEB-0141</OBJECT_NAME><OBJECT_ID>2020-100AF</OBJECT_ID><CENTER_NAME>EARTH</CENTER_NAME><REF_FRAME>TEME</REF_FRAME><TIME_SYSTEM>UTC</TIME_SYSTEM><MEAN_ELEMENT_THEORY>SGP4</MEAN_ELEMENT_THEORY></metadata><data><meanElements><EPOCH>2024-05-18T14:13:40.422144</EPOCH><MEAN_MOTION>13.11834444</MEAN_MOTION><ECCENTRICITY>.0001759</ECCENTRICITY><INCLINATION>87.8926</INCLINATION><RA_OF_ASC_NODE>141.8838</RA_OF_ASC_NODE><ARG_OF_PERICENTER>76.9007</ARG_OF_PERICENTER><MEAN_ANOMALY>283.2318</MEAN_ANOMALY></meanElements><tleParameters><EPHEMERIS_TYPE>0</EPHEMERIS_TYPE><CLASSIFICATION_TYPE>U</CLASSIFICATION_TYPE><NORAD_CAT_ID>47287</NORAD_CAT_ID><ELEMENT_SET_NO>999</ELEMENT_SET_NO><REV_AT_EPOCH>16504</REV_AT_EPOCH><BSTAR>-.19577E+0</BSTAR><MEAN_MOTION_DOT>-.69273E-3</MEAN_MOTION_DOT><MEAN_MOTION_DDOT>0</MEAN_MOTION_DDOT></tleParameters></data></segment></body></omm>
<omm id="CCSDS_OMM_VERS" version="2.0">
<header><CREATION_DATE/><ORIGINATOR/></header><body><segment><metadata><OBJECT_NAME>ONEWEB-0142</OBJECT_NAME><OBJECT_ID>2020-100AG</OBJECT_ID><CENTER_NAME>EARTH</CENTER_NAME><REF_FRAME>TEME</REF_FRAME><TIME_SYSTEM>UTC</TIME_SYSTEM><MEAN_ELEMENT_THEORY>SGP4</MEAN_ELEMENT_THEORY></metadata><data><meanElements><EPOCH>2024-05-18T12:13:31.847232</EPOCH><MEAN_MOTION>13.12445212</MEAN_MOTION><ECCENTRICITY>.0002187</ECCENTRICITY><INCLINATION>87.8925</INCLINATION><RA_OF_ASC_NODE>141.8925</RA_OF_ASC_NODE><ARG_OF_PERICENTER>83.2176</ARG_OF_PERICENTER><MEAN_ANOMALY>276.9201</MEAN_ANOMALY></meanElements><tleParameters><EPHEMERIS_TYPE>0</EPHEMERIS_TYPE><CLASSIFICATION_TYPE>U</CLASSIFICATION_TYPE><NORAD_CAT_ID>47288</NORAD_CAT_ID><ELEMENT_SET_NO>999</ELEMENT_SET_NO><REV_AT_EPOCH>16502</REV_AT_EPOCH><BSTAR>-.29661E-3</BSTAR><MEAN_MOTION_DOT>-.94E-6</MEAN_MOTION_DOT><MEAN_MOTION_DDOT>0</MEAN_MOTION_DDOT></tleParameters></data></segment></body></omm>
<omm id="CCSDS_OMM_VERS" version="2.0">
<header><CREATION_DATE/><ORIGINATOR/></header><body><segment><metadata><OBJECT_NAME>ONEWEB-0143</OBJECT_NAME><OBJECT_ID>2020-100AH</OBJECT_ID><CENTER_NAME>EARTH</CENTER_NAME><REF_FRAME>TEME</REF_FRAME><TIME_SYSTEM>UTC</TIME_SYSTEM><MEAN_ELEMENT_THEORY>SGP4</MEAN_ELEMENT_THEORY></metadata><data><meanElements><EPOCH>2024-05-18T11:06:04.463424</EPOCH><MEAN_MOTION>13.12444365</MEAN_MOTION><ECCENTRICITY>.0001925</ECCENTRICITY><INCLINATION>87.8924</INCLINATION><RA_OF_ASC_NODE>141.9218</RA_OF_ASC_NODE><ARG_OF_PERICENTER>88.9446</ARG_OF_PERICENTER><MEAN_ANOMALY>271.1903</MEAN_ANOMALY></meanElements><tleParameters><EPHEMERIS_TYPE>0</EPHEMERIS_TYPE><CLASSIFICATION_TYPE>U</CLASSIFICATION_TYPE><NORAD_CAT_ID>47289</NORAD_CAT_ID><ELEMENT_SET_NO>999</ELEMENT_SET_NO><REV_AT_EPOCH>16499</REV_AT_EPOCH><BSTAR>.15057E-2</BSTAR><MEAN_MOTION_DOT>.554E-5</MEAN_MOTION_DOT><MEAN_MOTION_DDOT>0</MEAN_MOTION_DDOT></tleParameters></data></segment></body></omm>

</ndm>
