ONEWEB-0136             
1 47282U 20100AA  24139.56579239 -.00001043  00000+0 -29357-2 0  9998
2 47282  87.8938 141.8746 0002388  94.7983 265.3419 13.12444021165026
ONEWEB-0137             
1 47283U 20100AB  24139.52290879  .00000345  00000+0  92301-3 0  9997
2 47283  87.8924 141.9099 0002095  85.8692 274.2676 13.12442729164922
ONEWEB-0138             
1 47284U 20100AC  24139.50225820 -.00000272  00000+0 -79068-3 0  9996
2 47284  87.8922 141.9263 0002164  88.5252 271.6124 13.12442546165009
ONEWEB-0139             
1 47285U 20100AD  24139.47367000  .00000205  00000+0  53569-3 0  9992
2 47285  87.8929 141.9038 0002111  90.5402 269.5968 13.12444402165071
ONEWEB-0140             
1 47286U 20100AE  24139.57213831 -.00000375  00000+0 -10764-2 0  9995
2 47286  87.8923 141.8877 0002227  89.7100 270.4283 13.12445068165057
ONEWEB-0141             
1 47287U 20100AF  24139.59282896 -.00069273  00000+0 -19577+0 0  9995
2 47287  87.8926 141.8838 0001759  76.9007 283.2318 13.11834444165040
ONEWEB-0142             
1 47288U 20100AG  24139.50939638 -.00000094  00000+0 -29661-3 0  9995
2 47288  87.8925 141.8925 0002187  83.2176 276.9201 13.12445212165021
ONEWEB-0143             
1 47289U 20100AH  24139.46255166  .00000554  00000+0  15057-2 0  9990
2 47289  87.8924 141.9218 0001925  88.9446 271.1903 13.12444365164997
